{
    "links": {
        "self": "http://www.neowsapp.com/rest/v1/neo/3624058?api_key=iIulBulltgU6a56xZRHN4H3l9WmuAYTsLGpBGhQ2"
    },
    "id": "3624058",
    "neo_reference_id": "3624058",
    "name": "(2013 AR72)",
    "designation": "2013 AR72",
    "nasa_jpl_url": "http://ssd.jpl.nasa.gov/sbdb.cgi?sstr=3624058",
    "absolute_magnitude_h": 25.2,
    "estimated_diameter": {
        "kilometers": {
            "estimated_diameter_min": 0.0242412481,
            "estimated_diameter_max": 0.0542050786
        },
        "meters": {
            "estimated_diameter_min": 24.2412481101,
            "estimated_diameter_max": 54.2050786336
        },
        "miles": {
            "estimated_diameter_min": 0.0150628086,
            "estimated_diameter_max": 0.0336814639
        },
        "feet": {
            "estimated_diameter_min": 79.5316564495,
            "estimated_diameter_max": 177.8381901842
        }
    },
    "is_potentially_hazardous_asteroid": false,
    "close_approach_data": [
        {
            "close_approach_date": "2013-01-18",
            "close_approach_date_full": "2013-Jan-18 07:35",
            "epoch_date_close_approach": 1358494500000,
            "relative_velocity": {
                "kilometers_per_second": "17.9797605346",
                "kilometers_per_hour": "64727.1379244826",
                "miles_per_hour": "40218.9263397986"
            },
            "miss_distance": {
                "astronomical": "0.1000287559",
                "lunar": "38.9111860451",
                "kilometers": "14964088.821389933",
                "miles": "9298253.6278617554"
            },
            "orbiting_body": "Earth"
        },
        {
            "close_approach_date": "2013-06-27",
            "close_approach_date_full": "2013-Jun-27 02:00",
            "epoch_date_close_approach": 1372298400000,
            "relative_velocity": {
                "kilometers_per_second": "15.9210448359",
                "kilometers_per_hour": "57315.7614093736",
                "miles_per_hour": "35613.7851935077"
            },
            "miss_distance": {
                "astronomical": "0.3935922856",
                "lunar": "153.1073990984",
                "kilometers": "58880567.574191672",
                "miles": "36586688.1433301936"
            },
            "orbiting_body": "Earth"
        }
    ],
    "orbital_data": {
        "orbit_id": "4",
        "orbit_determination_date": "2017-04-06 08:47:14",
        "first_observation_date": "2013-01-13",
        "last_observation_date": "2013-01-14",
        "data_arc_in_days": 1,
        "observations_used": 11,
        "orbit_uncertainty": "9",
        "minimum_orbit_intersection": ".0985453",
        "jupiter_tisserand_invariant": "4.496",
        "epoch_osculation": "2456306.5",
        "eccentricity": ".3315589277774914",
        "semi_major_axis": "1.42472212452347",
        "inclination": "31.29496845237053",
        "ascending_node_longitude": "293.7895689869676",
        "orbital_period": "621.1459811338007",
        "perihelion_distance": ".9523427845355987",
        "perihelion_argument": "241.261170910262",
        "aphelion_distance": "1.897101464511342",
        "perihelion_time": "2456361.650703392540",
        "mean_anomaly": "328.0360916365044",
        "mean_motion": ".5795739020042902",
        "equinox": "J2000",
        "orbit_class": {
            "orbit_class_type": "APO",
            "orbit_class_description": "Near-Earth asteroid orbits which cross the Earth’s orbit similar to that of 1862 Apollo",
            "orbit_class_range": "a (semi-major axis) > 1.0 AU; q (perihelion) < 1.017 AU"
        }
    },
    "is_sentry_object": false
}